#dP2018  7  1  0  0  0.00000000      96 __u+U IGS08 FIT  IAC
## 2008      0.00000000   900.00000000 58300 0.0000000000000
+   85   C01C02C03C04C05C06C07C08C09C10C11C12C13C14E01E02E03
+        E04E05E07E08E09E11E12E14E18E19E24E26E30G01G02G03G05
+        G06G07G08G09G10G11G12G13G14G15G16G17G18G19G20G21G22
+        G23G24G25G26G27G28G29G30G31G32J01R01R02R03R04R05R07
+        R08R09R10R11R13R14R15R16R17R18R19R20R21R22R23R24R26
++        13 12 13 13 13  9  9  9  9  9  7  7  8  8  8  7  8
++         8  7  7  8  8  8  8  8  8  8  8  8  7  6  6  6  6
++         6  3  6  3  3  6  6  6  3  3  6  3  6  6  3  6  6
++         6  6  3  3  3  4  6  6  3  3  9  5  5  5  5  7  5
++         5  7  5  7  7  5  5  7  5  6  5  5  5  5  5  6 10
%c M  cc GPS ccc cccc cccc cccc cccc ccccc ccccc ccccc ccccc
%c cc cc ccc ccc cccc cccc cccc cccc ccccc ccccc ccccc ccccc
%f  1.2500000  1.025000000  0.00000000000  0.000000000000000
%f  0.0000000  0.000000000  0.00000000000  0.000000000000000
%i    0    0    0    0      0      0      0      0         0
%i    0    0    0    0      0      0      0      0         0
/* INFORMATION & ANALYSIS CENTER (IAC)            FINAL DATA
/* S/V CLOCKS ARE ALIGNED TO GPS & GLONASS TIME RESPECTIVELY
/* USING THE BROADCAST EPHEMERIS                            
/* PCV:IGS14_2000 OL/AL:FES2004  NONE     YN ORB:CoN CLK:CoN
*  2018 07 01  0 30  0.00000000
PC01 -32264.563254  27121.000599    980.687024    281.221797
PC02   4398.709996  41917.241103  -1315.144404      1.217385
PC03 -14750.702649  39471.015342    311.838969    352.729084
PC04 -39600.797255  14488.491013    374.400987   -280.471081
PC05  21937.515416  35979.957814  -1055.392487    331.980370
PC06  -9753.769001  35971.318132 -19126.841195     77.406367
PC07 -15051.828851  21392.000597  33134.285561     86.541312
PC08 -25378.983351  30584.305316 -14377.081412    416.599431
PC09  -1078.245975  41546.196011  -5789.705950      9.786330
PC10   2987.462860  27200.264721  32274.508289   -350.789539
PC11  -9995.464584  25929.266110  -2901.988865   -572.072432
PC12 -17926.194305  15407.198078  14953.420074    497.733836
PC13 -13947.389978  31682.314367 -24231.169403   -400.122753
PC14  -2032.763161  20129.013302 -19134.880776    162.557756
PE01 -22509.283324   6206.225942  18184.284552   -380.681295
PE02  22496.792870  -6224.324638 -18205.384530     17.850346
PE03  13565.502906 -12816.389998  22983.977588    -49.366313
PE04  -1012.711751  27409.042451 -11114.704596    -65.911730
PE05  18198.639868   9331.121019  21408.861295    236.622203
PE07 -12160.985570 -25974.354777  -7292.471655      5.962673
PE08    717.120527 -27390.786732  11198.168187   6553.381424
PE09  12371.122837  25885.875764   7326.069262   6747.998435
PE11   7270.525691  15624.291136 -24071.030098   1851.492115
PE12 -11376.471707  23978.558366 -13085.459552   4500.766284
PE14  20167.866229 -15053.000619 -19899.500937   6558.521894
PE18 -12533.007317  18693.735385   9431.598306   6093.184384
PE19 -14240.998582  10886.824595 -23542.100804     23.761049
PE24  18190.762366  16325.374207  16679.798802   6624.979443
PE26 -21102.963780   1303.201823  20714.078454   5761.577987
PE30   3040.702857 -15983.755855 -24736.926966   5715.183256
PG01   -571.874024  15842.164669 -21415.748660    -61.320941
PG02  20031.336476 -15466.805207   8208.219665     70.691971
PG03   9036.902022  20363.511740 -14531.576301     98.238472
PG05  11254.467565 -10750.845971  21431.351534     -5.301275
PG06  25303.496019  -5431.852979  -6003.484717    391.437370
PG07  16011.624308   8838.592750  19640.714417    166.495200
PG08  -5428.468977  25801.624794   2450.725998   -106.613457
PG09   9211.487227  18595.813716  16540.463120    514.324052
PG10 -22765.393548  -8689.439030 -10715.811744    188.818217
PG11  -2870.068238  21198.680535 -16403.497881   -731.943098
PG12  -4068.474391 -19635.920576 -17702.391325    323.960335
PG13  12530.410572 -21578.062614   8988.512861    -92.952543
PG14 -15769.261523   9386.974771 -18832.790050    -97.542561
PG15   1842.444867 -26283.657521    -59.277364   -351.652370
PG16 -12394.159426   8176.680472  21895.424441     19.494011
PG17  14578.993744   1223.066634 -21774.966914    -82.866829
PG18  -9546.331484  17842.944222 -17576.623076     28.116591
PG19  15939.320800  -8257.776235 -19929.029015   -424.150685
PG20 -22790.831843 -13703.443734  -1002.109806    511.565676
PG21 -18896.632304  -6177.683517  18400.360122   -373.989931
PG22   1146.229632  18337.729130 -18944.493097   -443.228030
PG23   2036.698796  25203.936464   7671.594931   -215.152794
PG24   4228.015205 -17418.462901 -19627.866585    -51.946696
PG25 -16736.521760 -19660.799010  -6911.218023   -609.124114
PG26 -19705.715693    670.488299  17847.232880    -98.425168
PG27 -12025.234070  19412.543817  13256.784206    363.471813
PG28  21362.886599  13092.378148  -8111.994154    727.815081
PG29  -6054.620038 -20629.008143  15576.696270    422.997246
PG30  23201.391355   2223.035749  12904.171706     56.143186
PG31 -25771.293348   6121.375843  -3959.256098    110.904681
PG32 -15292.564944   -965.098795 -21649.590413   -484.263063
PJ01 -21340.809470  20204.272610 -25599.945250   -198.079904
PR01  14952.619526  13263.391705  15867.187013     28.419179
PR02   8991.175630  -6531.857850  23006.215650    317.423206
PR03  -1737.074059 -20627.393776  14978.933260    136.457098
PR04 -11728.386567 -22550.603814  -2212.938971    266.809295
PR05 -14845.292457 -11241.617215 -17429.802012    -32.796792
PR07   2038.009927  20812.220130 -14542.386563    -41.325156
PR08  11476.716921  22721.501413   1680.879101     22.484564
PR09 -21065.831130   4537.196176  13605.844871     15.822616
PR10  -5501.218023   9978.988642  22790.994572     27.022035
PR11  14003.442930  10312.505845  18695.836568    -33.156962
PR13  21074.371321  -4703.740134 -13608.405204    -11.994525
PR14   5765.438137 -10210.094963 -22644.585508     28.656968
PR15 -10009.504422 -10655.442191 -20922.216298    -12.531353
PR16 -24780.732346  -4156.991571  -4725.196194     95.998435
PR17  11596.111540 -21687.925237   6712.152011    144.333428
PR18    -58.753829 -15757.442580  20088.328711    201.242862
PR19 -11878.333821  -1057.931551  22543.126607    -55.671943
PR20 -17352.735883  15167.962727  10876.011906   -343.518159
PR21 -11414.875332  21703.271624  -7069.657849      9.393964
PR22   1666.848404  14153.222590 -21122.637105    -54.739621
PR23  13881.805893  -2885.030158 -21218.084779    162.967389
PR24  17075.839266 -16138.496560  -9982.430990   -168.289916
PR26 -17106.946711  14906.153796  11682.732801 999999.999999
EOF
